50
STARLINK-1008
1 44714U 19074B   26123.17227886  .00020924  00000+0  42423-3 0  9990
2 44714  53.1551 283.4608 0000949  19.5923 340.5121 15.46371711357247
STARLINK-1012
1 44718U 19074F   26123.62756526  .00020554  00000+0  41418-3 0  9994
2 44718  53.1591 281.6163 0000514  21.6996 338.4034 15.46562788357305
STARLINK-1017
1 44723U 19074L   26122.68730089  .00043910  00000+0  15527-2 0  9993
2 44723  53.0490 281.4039 0002679 251.7918 108.2789 15.28765406357214
STARLINK-1019
1 44724U 19074M   26123.54222461  .00573887  17824-3  63861-3 0  9992
2 44724  53.0310 216.4684 0011343 345.8763  14.1951 16.08781958358183
STARLINK-1020
1 44725U 19074N   26123.23817397  .00096794  00000+0  17050-2 0  9996
2 44725  53.1614 308.6913 0001182 102.5105 257.6037 15.49672672356878
STARLINK-1036
1 44741U 19074AE  26123.59271615  .00053686  00000+0  52105-3 0  9994
2 44741  53.0439 280.4990 0002839 192.0463 168.0484 15.65827282357300
STARLINK-1039
1 44744U 19074AH  26122.84927187  .00043466  00000+0  16648-2 0  9992
2 44744  53.0588 325.3076 0000578 127.1102 232.9949 15.26136873356615
STARLINK-1042
1 44747U 19074AL  26123.54386571  .00022473  00000+0  36590-3 0  9993
2 44747  53.0416 191.0235 0002194   8.6068 351.4978 15.52589083358584
STARLINK-1043
1 44748U 19074AM  26123.52708457  .00043965  00000+0  59009-3 0  9992
2 44748  53.0504 289.1741 0001381 219.1930 140.8981 15.57517650357183
STARLINK-1046
1 44751U 19074AQ  26122.94493576  .00085237  00000+0  14540-2 0  9992
2 44751  53.0490 311.7169 0002876 324.6114  35.4703 15.50635143356814
STARLINK-1047
1 44752U 19074AR  26123.57812907  .00009800  00000+0  30654-3 0  9993
2 44752  53.0695 249.3413 0003375  53.4169 306.7142 15.33795875357768
STARLINK-1048
1 44753U 19074AS  26123.60836466  .00123453  00000+0  12874-2 0  9998
2 44753  53.0462 261.9462 0004394 289.2870  70.7668 15.63647776357563
STARLINK-1063
1 44768U 19074BH  26123.57178572  .00029368  00000+0  59226-3 0  9990
2 44768  53.1571 322.5607 0000940 110.3736 249.7372 15.46325222356743
STARLINK-1067
1 44771U 19074BL  26123.66670139  .00133699  00000+0  11085-2 0  9993
2 44771  53.0449 295.1962 0004598 228.6023  15.4235 15.69306999  5971
STARLINK-1068
1 44772U 19074BM  26123.58335800  .00068606  00000+0  54015-3 0  9994
2 44772  53.0448 269.4759 0001982  87.9137 272.2107 15.70850786357459
STARLINK-1114
1 44927U 20001P   26123.62523483  .00106299  00000+0  12829-2 0  9996
2 44927  53.0442  63.6843 0003081  24.0636 336.0520 15.59948200348646
STARLINK-1123
1 44930U 20001S   26123.62564718  .00093470  00000+0  14649-2 0  9994
2 44930  53.1467  88.3747 0002313 115.2701 244.8549 15.52964780348302
STARLINK-1094
1 44941U 20001AD  26123.31558724  .00067043  00000+0  11888-2 0  9991
2 44941  53.1555  64.0006 0001924 123.4003 236.7190 15.49650774348622
STARLINK-1122
1 44949U 20001AM  26123.12742404  .00073606  00000+0  13093-2 0  9990
2 44949  53.1590  65.4341 0000342 121.7941 238.3102 15.49520153348584
STARLINK-1080
1 44961U 20001AZ  26123.41942534  .00127005  00000+0  17381-2 0  9999
2 44961  53.0478  24.8053 0000334 184.4267 175.6741 15.56518224349171
STARLINK-1090
1 44968U 20001BG  26123.61467686  .00075187  00000+0  14962-2 0  9993
2 44968  53.1518  49.9618 0001906 120.7758 239.3438 15.46281373348848
STARLINK-1132
1 45044U 20006A   26122.92773384  .00083472  00000+0  14197-2 0  9998
2 45044  53.1543 355.5264 0002858  95.4397 264.6939 15.50731217345328
STARLINK-1131
1 45047U 20006D   26123.45138647  .00079399  00000+0  14873-2 0  9991
2 45047  53.1599  25.0412 0001663 133.7870 226.3277 15.48006763344957
STARLINK-1134
1 45048U 20006E   26122.88596429  .00092267  00000+0  15632-2 0  9997
2 45048  53.0293 339.2186 0003559 353.6448   6.4515 15.50789482345532
STARLINK-1156
1 45054U 20006L   26123.15044147  .00057501  00000+0  18249-2 0  9999
2 45054  53.1592  27.8714 0001745 167.6180 192.4864 15.32145685344881
STARLINK-1159
1 45057U 20006P   26122.99126066  .01099394  84064-3  76447-3 0  9992
2 45057  53.0322 316.5649 0009033 275.3636  84.6370 16.15842785345859
STARLINK-1166
1 45060U 20006S   26123.58749620  .00090457  00000+0  13636-2 0  9993
2 45060  53.0487   9.3698 0001703 122.0215 238.0960 15.54052802345173
STARLINK-1169
1 45061U 20006T   26123.45123575  .00059870  00000+0  17381-2 0  9990
2 45061  53.1585  25.8337 0003850 136.2168 223.9140 15.34951206344947
STARLINK-1171
1 45062U 20006U   26123.31149301  .00075374  00000+0  61308-3 0  9997
2 45062  53.0438 340.6355 0003437 142.1567 217.9691 15.70025907345554
STARLINK-1133
1 45064U 20006W   26122.33337963  .00012225  00000+0  39944-3 0  9990
2 45064  53.1602   8.4688 0001312 168.1836 158.4177 15.32151744  5878
STARLINK-1167
1 45071U 20006AD  26123.63284834  .00064153  00000+0  18925-2 0  9992
2 45071  53.1602   2.0430 0003526 140.1167 220.0095 15.34415564345290
STARLINK-1168
1 45072U 20006AE  26123.36477968  .00058649  00000+0  18555-2 0  9997
2 45072  53.1594   3.8789 0001369 171.5423 188.5602 15.32237277345241
STARLINK-1172
1 45074U 20006AG  26122.96243157  .00050368  00000+0  14516-2 0  9998
2 45074  53.1570   4.7752 0003329 144.7227 215.3996 15.35258974345198
STARLINK-1153
1 45080U 20006AN  26123.35633414  .00050931  00000+0  15103-2 0  9997
2 45080  53.1596   3.2544 0003875 154.8396 205.2796 15.34353115345256
STARLINK-1151
1 45081U 20006AP  26123.28775271  .00085025  00000+0  61576-3 0  9996
2 45081  53.0512 330.2491 0003550 165.8844 194.2273 15.72742439345696
STARLINK-1185
1 45087U 20006AV  26122.90830529  .00055211  00000+0  12695-2 0  9999
2 45087  53.1611 347.5589 0001804 190.8084 169.2883 15.42150201345434
STARLINK-1183
1 45088U 20006AW  26123.34050913  .00063762  00000+0  20216-2 0  9998
2 45088  53.1606 348.5657 0001100 189.0484 171.0499 15.32131468345458
STARLINK-1152
1 45096U 20006BE  26123.50169342  .00072718  00000+0  15169-2 0  9994
2 45096  53.0377 306.6202 0001405  44.2508 315.8609 15.44915769346043
STARLINK-1184
1 45098U 20006BG  26123.34602652  .00025594  00000+0  14510-2 0  9993
2 45098  53.0548 358.0683 0001764 313.3665  46.7180 15.12843912345308
STARLINK-1193
1 45100U 20006BJ  26122.97255053  .00067703  00000+0  68711-3 0  9995
2 45100  53.0483 325.9577 0004749 173.7368 186.3707 15.64600025345724
STARLINK-1143
1 45179U 20012B   26123.66670139  .00143788  00000+0  83898-3 0  9992
2 45179  53.0396  58.0915 0001715  37.6040 155.2540 15.77486127  5988
STARLINK-1202
1 45183U 20012F   26123.47595141  .00050196  00000+0  16094-2 0  9998
2 45183  53.1540 144.6412 0003077  47.9633 312.1630 15.31877664343343
STARLINK-1216
1 45185U 20012H   26123.33136762  .00052655  00000+0  16707-2 0  9998
2 45185  53.1563 145.2440 0002940  48.1965 311.9287 15.32191054343266
STARLINK-1225
1 45187U 20012K   26123.32884427  .00054330  00000+0  17241-2 0  9993
2 45187  53.1570 145.7036 0002566  48.6886 311.4336 15.32173299343309
STARLINK-1230
1 45189U 20012M   26123.46871168  .00546009  00000+0  15734-1 0  9991
2 45189  53.1538 145.1010 0012559 352.5313   7.5499 15.32911966340554
STARLINK-1234
1 45190U 20012N   26123.51456920  .00072180  00000+0  58908-3 0  9990
2 45190  53.0411  55.5414 0008595 103.5217 256.6757 15.69923634344473
STARLINK-1269
1 45197U 20012V   26123.46463843  .00060118  00000+0  19024-2 0  9996
2 45197  53.1550 144.9772 0002698  38.1587 321.9605 15.32217426343300
STARLINK-1154
1 45198U 20012W   26123.15132994  .00099179  00000+0  14530-2 0  9999
2 45198  53.0419 108.4315 0003989   1.4631 358.6390 15.54786658343747
STARLINK-1199
1 45201U 20012Z   26123.43532060  .00054654  00000+0  17384-2 0  9992
2 45201  53.1550 129.3762 0002489  63.2865 296.8391 15.32096382343542
STARLINK-1209
1 45206U 20012AE  26123.14172857  .00077090  00000+0  90558-3 0  9993
2 45206  53.0400  69.7449 0011530  90.3892 269.8442 15.60727054343395
